start=new Date('2021-12-31T00:00:00.000Z').valueOf();
sats=[{"COUNTRY_CODE":"US","CENTER_NAME":"EARTH","PERIOD":"95.592","MEAN_MOTION":"15.06401420","TLE_LINE1":"1 48103U 21027M   21364.86091896  .00001383  00000-0  11172-3 0  9991","TIME_SYSTEM":"UTC","DECAY_DATE":null,"ARG_OF_PERICENTER":"86.8859","MEAN_MOTION_DDOT":"0.0000000000000","GP_ID":"192794240","EPOCH":"2021-12-30T20:39:43.398144","NORAD_CAT_ID":"48103","LAUNCH_DATE":"2021-04-07","APOAPSIS":"549.142","MEAN_ANOMALY":"273.2450","FILE":"3255240","REV_AT_EPOCH":"4211","RCS_SIZE":"MEDIUM","BSTAR":"0.00011172000000","PERIAPSIS":"545.276","MEAN_MOTION_DOT":"0.00001383","ECCENTRICITY":"0.00027910","MEAN_ELEMENT_THEORY":"SGP4","EPHEMERIS_TYPE":"0","INCLINATION":"53.0536","SEMIMAJOR_AXIS":"6925.344","CLASSIFICATION_TYPE":"U","OBJECT_ID":"2021-027M","OBJECT_NAME":"STARLINK-2438","REF_FRAME":"TEME","ELEMENT_SET_NO":"999","RA_OF_ASC_NODE":"179.2765","SITE":"AFETR","OBJECT_TYPE":"PAYLOAD","TLE_LINE2":"2 48103  53.0536 179.2765 0002791  86.8859 273.2450 15.06401420 42114"},{"ECCENTRICITY":"0.00028120","MEAN_ELEMENT_THEORY":"SGP4","EPHEMERIS_TYPE":"0","INCLINATION":"53.0555","SEMIMAJOR_AXIS":"6925.339","CLASSIFICATION_TYPE":"U","REF_FRAME":"TEME","ELEMENT_SET_NO":"999","RA_OF_ASC_NODE":"184.2434","OBJECT_ID":"2021-027N","OBJECT_NAME":"STARLINK-2439","SITE":"AFETR","TLE_LINE2":"2 48104  53.0555 184.2434 0002812  84.8816 275.2493 15.06403048 42050","OBJECT_TYPE":"PAYLOAD","TLE_LINE1":"1 48104U 21027N   21364.87335661  .00000818  00000-0  73869-4 0  9998","TIME_SYSTEM":"UTC","DECAY_DATE":null,"COUNTRY_CODE":"US","PERIOD":"95.592","CENTER_NAME":"EARTH","MEAN_MOTION":"15.06403048","ARG_OF_PERICENTER":"84.8816","GP_ID":"192794492","MEAN_MOTION_DDOT":"0.0000000000000","EPOCH":"2021-12-30T20:57:38.011104","NORAD_CAT_ID":"48104","REV_AT_EPOCH":"4205","RCS_SIZE":"LARGE","BSTAR":"0.00007386900000","MEAN_MOTION_DOT":"0.00000818","PERIAPSIS":"545.257","LAUNCH_DATE":"2021-04-07","APOAPSIS":"549.152","MEAN_ANOMALY":"275.2493","FILE":"3255240"},{"RA_OF_ASC_NODE":"129.3352","ELEMENT_SET_NO":"999","REF_FRAME":"TEME","OBJECT_NAME":"STARLINK-2440","OBJECT_ID":"2021-027P","SITE":"AFETR","TLE_LINE2":"2 48105  53.0564 129.3352 0001798  96.3000 263.8193 15.06398407 42811","OBJECT_TYPE":"PAYLOAD","EPHEMERIS_TYPE":"0","ECCENTRICITY":"0.00017980","MEAN_ELEMENT_THEORY":"SGP4","CLASSIFICATION_TYPE":"U","INCLINATION":"53.0564","SEMIMAJOR_AXIS":"6925.353","BSTAR":"-0.00000654980000","MEAN_MOTION_DOT":"-0.00000379","PERIAPSIS":"545.973","REV_AT_EPOCH":"4281","RCS_SIZE":"LARGE","MEAN_ANOMALY":"263.8193","FILE":"3255240","LAUNCH_DATE":"2021-04-07","APOAPSIS":"548.464","DECAY_DATE":null,"TIME_SYSTEM":"UTC","TLE_LINE1":"1 48105U 21027P   21364.84708465 -.00000379  00000-0 -65498-5 0  9996","COUNTRY_CODE":"US","CENTER_NAME":"EARTH","PERIOD":"95.592","MEAN_MOTION":"15.06398407","EPOCH":"2021-12-30T20:19:48.113760","NORAD_CAT_ID":"48105","ARG_OF_PERICENTER":"96.3000","GP_ID":"192795242","MEAN_MOTION_DDOT":"0.0000000000000"},{"SITE":"AFETR","OBJECT_TYPE":"PAYLOAD","TLE_LINE2":"2 48106  53.0541 179.7132 0002585  87.3042 272.8242 15.06392798 42107","RA_OF_ASC_NODE":"179.7132","ELEMENT_SET_NO":"999","REF_FRAME":"TEME","OBJECT_NAME":"STARLINK-2442","OBJECT_ID":"2021-027Q","CLASSIFICATION_TYPE":"U","INCLINATION":"53.0541","SEMIMAJOR_AXIS":"6925.371","EPHEMERIS_TYPE":"0","ECCENTRICITY":"0.00025850","MEAN_ELEMENT_THEORY":"SGP4","BSTAR":"0.00008154200000","MEAN_MOTION_DOT":"0.00000933","PERIAPSIS":"545.445","REV_AT_EPOCH":"4210","RCS_SIZE":"LARGE","MEAN_ANOMALY":"272.8242","FILE":"3255240","LAUNCH_DATE":"2021-04-07","APOAPSIS":"549.026","EPOCH":"2021-12-30T18:20:23.658144","NORAD_CAT_ID":"48106","ARG_OF_PERICENTER":"87.3042","MEAN_MOTION_DDOT":"0.0000000000000","GP_ID":"192793990","DECAY_DATE":null,"TIME_SYSTEM":"UTC","TLE_LINE1":"1 48106U 21027Q   21364.76416271  .00000933  00000-0  81542-4 0  9990","PERIOD":"95.593","COUNTRY_CODE":"US","CENTER_NAME":"EARTH","MEAN_MOTION":"15.06392798"},{"REV_AT_EPOCH":"4212","RCS_SIZE":"LARGE","BSTAR":"0.00014940000000","PERIAPSIS":"545.611","MEAN_MOTION_DOT":"0.00001945","LAUNCH_DATE":"2021-04-07","APOAPSIS":"548.783","MEAN_ANOMALY":"267.7043","FILE":"3255240","TIME_SYSTEM":"UTC","TLE_LINE1":"1 48107U 21027R   21364.91252393  .00001945  00000-0  14940-3 0  9992","DECAY_DATE":null,"COUNTRY_CODE":"US","PERIOD":"95.592","CENTER_NAME":"EARTH","MEAN_MOTION":"15.06405298","ARG_OF_PERICENTER":"92.4208","MEAN_MOTION_DDOT":"0.0000000000000","GP_ID":"192793741","EPOCH":"2021-12-30T21:54:02.067552","NORAD_CAT_ID":"48107","ELEMENT_SET_NO":"999","REF_FRAME":"TEME","RA_OF_ASC_NODE":"179.0457","OBJECT_ID":"2021-027R","OBJECT_NAME":"STARLINK-2443","SITE":"AFETR","TLE_LINE2":"2 48107  53.0531 179.0457 0002290  92.4208 267.7043 15.06405298 42128","OBJECT_TYPE":"PAYLOAD","ECCENTRICITY":"0.00022900","MEAN_ELEMENT_THEORY":"SGP4","EPHEMERIS_TYPE":"0","INCLINATION":"53.0531","SEMIMAJOR_AXIS":"6925.332","CLASSIFICATION_TYPE":"U"},{"MEAN_ANOMALY":"277.1381","FILE":"3255240","LAUNCH_DATE":"2021-04-07","APOAPSIS":"548.864","BSTAR":"0.00009094000000","PERIAPSIS":"545.557","MEAN_MOTION_DOT":"0.00001073","REV_AT_EPOCH":"4197","RCS_SIZE":"LARGE","CENTER_NAME":"EARTH","COUNTRY_CODE":"US","PERIOD":"95.592","MEAN_MOTION":"15.06400996","DECAY_DATE":null,"TIME_SYSTEM":"UTC","TLE_LINE1":"1 48108U 21027S   21364.88579415  .00001073  00000-0  90940-4 0  9993","EPOCH":"2021-12-30T21:15:32.614560","NORAD_CAT_ID":"48108","ARG_OF_PERICENTER":"82.9880","GP_ID":"192794992","MEAN_MOTION_DDOT":"0.0000000000000","OBJECT_NAME":"STARLINK-2444","OBJECT_ID":"2021-027S","RA_OF_ASC_NODE":"189.1809","REF_FRAME":"TEME","ELEMENT_SET_NO":"999","SITE":"AFETR","OBJECT_TYPE":"PAYLOAD","TLE_LINE2":"2 48108  53.0536 189.1809 0002388  82.9880 277.1381 15.06400996 41977","EPHEMERIS_TYPE":"0","ECCENTRICITY":"0.00023880","MEAN_ELEMENT_THEORY":"SGP4","CLASSIFICATION_TYPE":"U","INCLINATION":"53.0536","SEMIMAJOR_AXIS":"6925.346"},{"OBJECT_ID":"2021-027T","OBJECT_NAME":"STARLINK-2445","ELEMENT_SET_NO":"999","REF_FRAME":"TEME","RA_OF_ASC_NODE":"199.1066","SITE":"AFETR","TLE_LINE2":"2 48109  53.0545 199.1066 0002206  81.8977 278.2262 15.06394807 41847","OBJECT_TYPE":"PAYLOAD","ECCENTRICITY":"0.00022060","MEAN_ELEMENT_THEORY":"SGP4","EPHEMERIS_TYPE":"0","INCLINATION":"53.0545","SEMIMAJOR_AXIS":"6925.364","CLASSIFICATION_TYPE":"U","LAUNCH_DATE":"2021-04-07","APOAPSIS":"548.757","MEAN_ANOMALY":"278.2262","FILE":"3255240","REV_AT_EPOCH":"4184","RCS_SIZE":"LARGE","BSTAR":"-0.00003415400000","MEAN_MOTION_DOT":"-0.00000790","PERIAPSIS":"545.702","COUNTRY_CODE":"US","PERIOD":"95.592","CENTER_NAME":"EARTH","MEAN_MOTION":"15.06394807","TLE_LINE1":"1 48109U 21027T   21364.89961959 -.00000790  00000-0 -34154-4 0  9995","TIME_SYSTEM":"UTC","DECAY_DATE":null,"ARG_OF_PERICENTER":"81.8977","GP_ID":"192794743","MEAN_MOTION_DDOT":"0.0000000000000","EPOCH":"2021-12-30T21:35:27.132576","NORAD_CAT_ID":"48109"},{"MEAN_MOTION_DDOT":"0.0000000000000","GP_ID":"192793491","ARG_OF_PERICENTER":"83.7365","NORAD_CAT_ID":"48110","EPOCH":"2021-12-30T19:24:05.208768","TIME_SYSTEM":"UTC","TLE_LINE1":"1 48110U 21027U   21364.80839362  .00001212  00000-0  10031-3 0  9995","DECAY_DATE":null,"MEAN_MOTION":"15.06398799","COUNTRY_CODE":"US","CENTER_NAME":"EARTH","PERIOD":"95.592","RCS_SIZE":"LARGE","REV_AT_EPOCH":"4197","MEAN_MOTION_DOT":"0.00001212","PERIAPSIS":"545.384","BSTAR":"0.00010031000000","APOAPSIS":"549.050","LAUNCH_DATE":"2021-04-07","FILE":"3255240","MEAN_ANOMALY":"276.3925","SEMIMAJOR_AXIS":"6925.352","INCLINATION":"53.0543","CLASSIFICATION_TYPE":"U","MEAN_ELEMENT_THEORY":"SGP4","ECCENTRICITY":"0.00026470","EPHEMERIS_TYPE":"0","OBJECT_TYPE":"PAYLOAD","TLE_LINE2":"2 48110  53.0543 189.5179 0002647  83.7365 276.3925 15.06398799 41979","SITE":"AFETR","ELEMENT_SET_NO":"999","REF_FRAME":"TEME","RA_OF_ASC_NODE":"189.5179","OBJECT_ID":"2021-027U","OBJECT_NAME":"STARLINK-2447"},{"ARG_OF_PERICENTER":"89.7150","MEAN_MOTION_DDOT":"0.0000000000000","GP_ID":"192794241","EPOCH":"2021-12-30T22:28:30.015264","NORAD_CAT_ID":"48111","TIME_SYSTEM":"UTC","TLE_LINE1":"1 48111U 21027V   21364.93645851 -.00000911  00000-0 -42274-4 0  9990","DECAY_DATE":null,"PERIOD":"95.593","COUNTRY_CODE":"US","CENTER_NAME":"EARTH","MEAN_MOTION":"15.06394097","REV_AT_EPOCH":"4199","RCS_SIZE":"LARGE","BSTAR":"-0.00004227400000","MEAN_MOTION_DOT":"-0.00000911","PERIAPSIS":"545.572","LAUNCH_DATE":"2021-04-07","APOAPSIS":"548.891","MEAN_ANOMALY":"270.4113","FILE":"3255240","INCLINATION":"53.0539","SEMIMAJOR_AXIS":"6925.367","CLASSIFICATION_TYPE":"U","ECCENTRICITY":"0.00023960","MEAN_ELEMENT_THEORY":"SGP4","EPHEMERIS_TYPE":"0","SITE":"AFETR","OBJECT_TYPE":"PAYLOAD","TLE_LINE2":"2 48111  53.0539 188.9514 0002396  89.7150 270.4113 15.06394097 41993","REF_FRAME":"TEME","ELEMENT_SET_NO":"999","RA_OF_ASC_NODE":"188.9514","OBJECT_ID":"2021-027V","OBJECT_NAME":"STARLINK-2448"},{"CLASSIFICATION_TYPE":"U","INCLINATION":"53.0530","SEMIMAJOR_AXIS":"6925.342","EPHEMERIS_TYPE":"0","ECCENTRICITY":"0.00024370","MEAN_ELEMENT_THEORY":"SGP4","SITE":"AFETR","OBJECT_TYPE":"PAYLOAD","TLE_LINE2":"2 48112  53.0530 204.3645 0002437  80.4874 279.6390 15.06402035 41765","OBJECT_NAME":"STARLINK-2449","OBJECT_ID":"2021-027W","RA_OF_ASC_NODE":"204.3645","REF_FRAME":"TEME","ELEMENT_SET_NO":"999","EPOCH":"2021-12-30T20:16:27.594912","NORAD_CAT_ID":"48112","ARG_OF_PERICENTER":"80.4874","GP_ID":"192794493","MEAN_MOTION_DDOT":"0.0000000000000","PERIOD":"95.592","COUNTRY_CODE":"US","CENTER_NAME":"EARTH","MEAN_MOTION":"15.06402035","DECAY_DATE":null,"TIME_SYSTEM":"UTC","TLE_LINE1":"1 48112U 21027W   21364.84476383  .00001150  00000-0  96111-4 0  9996","MEAN_ANOMALY":"279.6390","FILE":"3255240","LAUNCH_DATE":"2021-04-07","APOAPSIS":"548.895","BSTAR":"0.00009611100000","MEAN_MOTION_DOT":"0.00001150","PERIAPSIS":"545.520","REV_AT_EPOCH":"4176","RCS_SIZE":"LARGE"}];
